{
  "type": "FeatureCollection",
  "features": [
    {
      "type": "Feature",
      "properties": {
        "norad_id": 66857,
        "name": "STARLINK-36083",
        "group": "last-30-days",
        "lat": -22.650675114330156,
        "lon": -88.62921702857703,
        "alt_km": 367.7736017166035,
        "timestamp": "2025-12-22T04:03:37.888319+00:00",
        "meta_object_name": "STARLINK-36083",
        "meta_object_id": "2025-281K",
        "meta_epoch": "2025-12-21T20:00:01.999008",
        "meta_mean_motion": 15.68979402,
        "meta_eccentricity": 0.0001216,
        "meta_inclination": 43.0002,
        "meta_ra_of_asc_node": 66.7844,
        "meta_arg_of_pericenter": 286.7292,
        "meta_mean_anomaly": 189.2894,
        "meta_ephemeris_type": 0,
        "meta_classification_type": "U",
        "meta_norad_cat_id": 66857,
        "meta_element_set_no": 999,
        "meta_rev_at_epoch": 285,
        "meta_bstar": -0.018613,
        "meta_mean_motion_dot": -0.01953573,
        "meta_mean_motion_ddot": 0,
        "tle_line1": "1 66857U 25281K   25355.83335647 -.01953573  00000+0 -18613-1 0  9993",
        "tle_line2": "2 66857  43.0002  66.7844 0001216 286.7292 189.2894 15.68979402  2851"
      },
      "geometry": {
        "type": "Point",
        "coordinates": [
          -88.62921702857703,
          -22.650675114330156
        ]
      }
    },
    {
      "type": "Feature",
      "properties": {
        "norad_id": 66858,
        "name": "STARLINK-35118",
        "group": "last-30-days",
        "lat": -23.807437688909825,
        "lon": -86.97819574565752,
        "alt_km": 367.8210097673973,
        "timestamp": "2025-12-22T04:03:37.888347+00:00",
        "meta_object_name": "STARLINK-35118",
        "meta_object_id": "2025-281L",
        "meta_epoch": "2025-12-21T20:00:01.999008",
        "meta_mean_motion": 15.68968265,
        "meta_eccentricity": 0.0001219,
        "meta_inclination": 43.0005,
        "meta_ra_of_asc_node": 66.7793,
        "meta_arg_of_pericenter": 286.7564,
        "meta_mean_anomaly": 191.1794,
        "meta_ephemeris_type": 0,
        "meta_classification_type": "U",
        "meta_norad_cat_id": 66858,
        "meta_element_set_no": 999,
        "meta_rev_at_epoch": 264,
        "meta_bstar": -0.01842,
        "meta_mean_motion_dot": -0.01934831,
        "meta_mean_motion_ddot": 0,
        "tle_line1": "1 66858U 25281L   25355.83335647 -.01934831  00000+0 -18420-1 0  9996",
        "tle_line2": "2 66858  43.0005  66.7793 0001219 286.7564 191.1794 15.68968265  2646"
      },
      "geometry": {
        "type": "Point",
        "coordinates": [
          -86.97819574565752,
          -23.807437688909825
        ]
      }
    },
    {
      "type": "Feature",
      "properties": {
        "norad_id": 66859,
        "name": "STARLINK-35646",
        "group": "last-30-days",
        "lat": -24.948847610067094,
        "lon": -85.29266812855865,
        "alt_km": 367.8793621541663,
        "timestamp": "2025-12-22T04:03:37.888358+00:00",
        "meta_object_name": "STARLINK-35646",
        "meta_object_id": "2025-281M",
        "meta_epoch": "2025-12-21T20:00:01.999008",
        "meta_mean_motion": 15.68972835,
        "meta_eccentricity": 0.0001221,
        "meta_inclination": 43.0005,
        "meta_ra_of_asc_node": 66.7749,
        "meta_arg_of_pericenter": 286.9451,
        "meta_mean_anomaly": 192.9063,
        "meta_ephemeris_type": 0,
        "meta_classification_type": "U",
        "meta_norad_cat_id": 66859,
        "meta_element_set_no": 999,
        "meta_rev_at_epoch": 285,
        "meta_bstar": -0.018488,
        "meta_mean_motion_dot": -0.01941475,
        "meta_mean_motion_ddot": 0,
        "tle_line1": "1 66859U 25281M   25355.83335647 -.01941475  00000+0 -18488-1 0  9993",
        "tle_line2": "2 66859  43.0005  66.7749 0001221 286.9451 192.9063 15.68972835  2857"
      },
      "geometry": {
        "type": "Point",
        "coordinates": [
          -85.29266812855865,
          -24.948847610067094
        ]
      }
    },
    {
      "type": "Feature",
      "properties": {
        "norad_id": 66860,
        "name": "STARLINK-35987",
        "group": "last-30-days",
        "lat": -30.335549910104188,
        "lon": -76.36513550672832,
        "alt_km": 368.0807467732702,
        "timestamp": "2025-12-22T04:03:37.888370+00:00",
        "meta_object_name": "STARLINK-35987",
        "meta_object_id": "2025-281N",
        "meta_epoch": "2025-12-21T20:00:01.999008",
        "meta_mean_motion": 15.68975476,
        "meta_eccentricity": 0.0001173,
        "meta_inclination": 43.0003,
        "meta_ra_of_asc_node": 66.7508,
        "meta_arg_of_pericenter": 285.2202,
        "meta_mean_anomaly": 204.2203,
        "meta_ephemeris_type": 0,
        "meta_classification_type": "U",
        "meta_norad_cat_id": 66860,
        "meta_element_set_no": 999,
        "meta_rev_at_epoch": 285,
        "meta_bstar": -0.018568,
        "meta_mean_motion_dot": -0.01949026,
        "meta_mean_motion_ddot": 0,
        "tle_line1": "1 66860U 25281N   25355.83335647 -.01949026  00000+0 -18568-1 0  9994",
        "tle_line2": "2 66860  43.0003  66.7508 0001173 285.2202 204.2203 15.68975476  2859"
      },
      "geometry": {
        "type": "Point",
        "coordinates": [
          -76.36513550672832,
          -30.335549910104188
        ]
      }
    },
    {
      "type": "Feature",
      "properties": {
        "norad_id": 66861,
        "name": "STARLINK-35991",
        "group": "last-30-days",
        "lat": -27.17286535911063,
        "lon": -81.82480817414881,
        "alt_km": 367.9413641805595,
        "timestamp": "2025-12-22T04:03:37.888381+00:00",
        "meta_object_name": "STARLINK-35991",
        "meta_object_id": "2025-281P",
        "meta_epoch": "2025-12-21T20:00:01.999008",
        "meta_mean_motion": 15.68977578,
        "meta_eccentricity": 0.0001246,
        "meta_inclination": 43.0003,
        "meta_ra_of_asc_node": 66.7656,
        "meta_arg_of_pericenter": 285.2038,
        "meta_mean_anomaly": 198.4842,
        "meta_ephemeris_type": 0,
        "meta_classification_type": "U",
        "meta_norad_cat_id": 66861,
        "meta_element_set_no": 999,
        "meta_rev_at_epoch": 285,
        "meta_bstar": -0.01859,
        "meta_mean_motion_dot": -0.01951309,
        "meta_mean_motion_ddot": 0,
        "tle_line1": "1 66861U 25281P   25355.83335647 -.01951309  00000+0 -18590-1 0  9997",
        "tle_line2": "2 66861  43.0003  66.7656 0001246 285.2038 198.4842 15.68977578  2850"
      },
      "geometry": {
        "type": "Point",
        "coordinates": [
          -81.82480817414881,
          -27.17286535911063
        ]
      }
    },
    {
      "type": "Feature",
      "properties": {
        "norad_id": 66862,
        "name": "STARLINK-35974",
        "group": "last-30-days",
        "lat": -26.076404884573144,
        "lon": -83.56701637539496,
        "alt_km": 367.7783039324049,
        "timestamp": "2025-12-22T04:03:37.888391+00:00",
        "meta_object_name": "STARLINK-35974",
        "meta_object_id": "2025-281Q",
        "meta_epoch": "2025-12-21T20:00:01.999008",
        "meta_mean_motion": 15.68963467,
        "meta_eccentricity": 0.0001311,
        "meta_inclination": 43.0003,
        "meta_ra_of_asc_node": 66.7703,
        "meta_arg_of_pericenter": 278.3684,
        "meta_mean_anomaly": 203.4253,
        "meta_ephemeris_type": 0,
        "meta_classification_type": "U",
        "meta_norad_cat_id": 66862,
        "meta_element_set_no": 999,
        "meta_rev_at_epoch": 275,
        "meta_bstar": -0.018574,
        "meta_mean_motion_dot": -0.0194882,
        "meta_mean_motion_ddot": 0,
        "tle_line1": "1 66862U 25281Q   25355.83335647 -.01948820  00000+0 -18574-1 0  9994",
        "tle_line2": "2 66862  43.0003  66.7703 0001311 278.3684 203.4253 15.68963467  2751"
      },
      "geometry": {
        "type": "Point",
        "coordinates": [
          -83.56701637539496,
          -26.076404884573144
        ]
      }
    },
    {
      "type": "Feature",
      "properties": {
        "norad_id": 66863,
        "name": "STARLINK-36134",
        "group": "last-30-days",
        "lat": -28.251952567270063,
        "lon": -80.0403106894105,
        "alt_km": 368.02210966577513,
        "timestamp": "2025-12-22T04:03:37.888400+00:00",
        "meta_object_name": "STARLINK-36134",
        "meta_object_id": "2025-281R",
        "meta_epoch": "2025-12-21T20:00:01.999008",
        "meta_mean_motion": 15.68979785,
        "meta_eccentricity": 0.0001203,
        "meta_inclination": 43.0003,
        "meta_ra_of_asc_node": 66.7609,
        "meta_arg_of_pericenter": 286.4593,
        "meta_mean_anomaly": 199.1461,
        "meta_ephemeris_type": 0,
        "meta_classification_type": "U",
        "meta_norad_cat_id": 66863,
        "meta_element_set_no": 999,
        "meta_rev_at_epoch": 285,
        "meta_bstar": -0.018633,
        "meta_mean_motion_dot": -0.0195543,
        "meta_mean_motion_ddot": 0,
        "tle_line1": "1 66863U 25281R   25355.83335647 -.01955430  00000+0 -18633-1 0  9996",
        "tle_line2": "2 66863  43.0003  66.7609 0001203 286.4593 199.1461 15.68979785  2859"
      },
      "geometry": {
        "type": "Point",
        "coordinates": [
          -80.0403106894105,
          -28.251952567270063
        ]
      }
    }
  ]
}